SKYKRAFT-1A             
1 55054U 23001AX  26068.71064616  .00008177  00000+0  30069-3 0  9991
2 55054  97.3349 127.6290 0011277 121.5092 238.7251 15.28083228176529
STARLINK-36542          
1 67445U 26008A   26068.39299931  .00031588  00000+0  11507-2 0  9999
2 67445  42.9989 207.1817 0001334 182.2029 177.8817 15.27630907  9525
